{
  "norad_id": 65408,
  "name": "STARLINK-35008",
  "history": [
    {
      "epoch": "2026-03-28T13:29:55.229856Z",
      "apogee_km": 476.08205604350314,
      "perigee_km": 474.25907623091007,
      "latitude_deg": 3.4491768148928545e-05,
      "longitude_deg": 116.23649462116923,
      "height_km": 475.99170260062476,
      "semi_major_axis_km": 6853.307566137207,
      "eccentricity": 0.000133,
      "inclination_deg": 53.1601,
      "raan_deg": 144.6977,
      "arg_perigee_deg": 85.1619,
      "mean_anomaly_deg": 274.9534,
      "mean_motion_rev_day": 15.30214905
    }
  ]
}