{"fetched_at":"2026-03-29T02:12:04Z","count":15717,"tles":[{"name":"STARLINK-35008","line1":"1 65408U 25192E   26087.56244479  .00019421  00000+0  66580-3 0  9990","line2":"2 65408  53.1601 144.6977 0001330  85.1619 274.9534 15.30214906 32275","category":"Starlink"}]}